{"type": "FeatureCollection", "features": [ {"type": "Feature", "properties": {"norad_id": 34736, "name": "COSMOS 2251 DEB", "group": "cosmos-2251-debris", "lat": -14.818309793210245, "lon": -143.060468992793, "alt_km": 433.2705080540545, "timestamp": "2025-12-14T09:36:23.433089+00:00", "meta": {"OBJECT_NAME": "COSMOS 2251 DEB", "OBJECT_ID": "1993-036ZE", "EPOCH": "2025-12-13T14:09:47.054016", "MEAN_MOTION": 15.48538134, "ECCENTRICITY": 0.00172762, "INCLINATION": 74.001, "RA_OF_ASC_NODE": 34.3634, "ARG_OF_PERICENTER": 345.3434, "MEAN_ANOMALY": 14.7274, "EPHEMERIS_TYPE": 0, "CLASSIFICATION_TYPE": "U", "NORAD_CAT_ID": 34736, "ELEMENT_SET_NO": 999, "REV_AT_EPOCH": 88461, "BSTAR": 0.0079304178, "MEAN_MOTION_DOT": 0.00449596, "MEAN_MOTION_DDOT": 0}, "tle": {"line1": "1 34736U 93036ZE  25347.59012794  .00449596  00000+0  79304-2 0  9993", "line2": "2 34736  74.0010  34.3634 0017276 345.3434  14.7274 15.48538134884613"}}, "geometry": {"type": "Point", "coordinates": [-143.060468992793, -14.818309793210245]}}, {"type": "Feature", "properties": {"norad_id": 34738, "name": "COSMOS 2251 DEB", "group": "cosmos-2251-debris", "lat": -28.735152306121115, "lon": -30.79448368811419, "alt_km": 735.0234076907445, "timestamp": "2025-12-14T09:36:23.433098+00:00", "meta": {"OBJECT_NAME": "COSMOS 2251 DEB", "OBJECT_ID": "1993-036ZG", "EPOCH": "2025-12-13T14:57:13.851072", "MEAN_MOTION": 14.46304989, "ECCENTRICITY": 0.00474075, "INCLINATION": 74.0145, "RA_OF_ASC_NODE": 141.615, "ARG_OF_PERICENTER": 287.7117, "MEAN_ANOMALY": 197.7392, "EPHEMERIS_TYPE": 0, "CLASSIFICATION_TYPE": "U", "NORAD_CAT_ID": 34738, "ELEMENT_SET_NO": 999, "REV_AT_EPOCH": 87871, "BSTAR": 0.0004739122, "MEAN_MOTION_DOT": 1.695e-05, "MEAN_MOTION_DDOT": 0}, "tle": {"line1": "1 34738U 93036ZG  25347.62307698  .00001695  00000+0  47391-3 0  9995", "line2": "2 34738  74.0145 141.6150 0047407 287.7117 197.7392 14.46304989878718"}}, "geometry": {"type": "Point", "coordinates": [-30.79448368811419, -28.735152306121115]}}, {"type": "Feature", "properties": {"norad_id": 34750, "name": "COSMOS 2251 DEB", "group": "cosmos-2251-debris", "lat": 72.42731616061417, "lon": -45.51298371978839, "alt_km": 665.1765267391293, "timestamp": "2025-12-14T09:36:23.433109+00:00", "meta": {"OBJECT_NAME": "COSMOS 2251 DEB", "OBJECT_ID": "1993-036ZU", "EPOCH": "2025-12-13T15:23:02.186592", "MEAN_MOTION": 14.61336325, "ECCENTRICITY": 0.00387952, "INCLINATION": 74.1081, "RA_OF_ASC_NODE": 200.0355, "ARG_OF_PERICENTER": 152.8101, "MEAN_ANOMALY": 272.355, "EPHEMERIS_TYPE": 0, "CLASSIFICATION_TYPE": "U", "NORAD_CAT_ID": 34750, "ELEMENT_SET_NO": 999, "REV_AT_EPOCH": 88244, "BSTAR": 0.0012782656, "MEAN_MOTION_DOT": 6.36e-05, "MEAN_MOTION_DDOT": 0}, "tle": {"line1": "1 34750U 93036ZU  25347.64099753  .00006360  00000+0  12783-2 0  9991", "line2": "2 34750  74.1081 200.0355 0038795 152.8101 272.3550 14.61336325882441"}}, "geometry": {"type": "Point", "coordinates": [-45.51298371978839, 72.42731616061417]}}, {"type": "Feature", "properties": {"norad_id": 34752, "name": "COSMOS 2251 DEB", "group": "cosmos-2251-debris", "lat": 65.01677496104219, "lon": 139.25499571094502, "alt_km": 528.34731803266, "timestamp": "2025-12-14T09:36:23.433119+00:00", "meta": {"OBJECT_NAME": "COSMOS 2251 DEB", "OBJECT_ID": "1993-036ZW", "EPOCH": "2025-12-13T10:42:42.914592", "MEAN_MOTION": 14.99957131, "ECCENTRICITY": 0.00477018, "INCLINATION": 74.0136, "RA_OF_ASC_NODE": 359.1669, "ARG_OF_PERICENTER": 127.4592, "MEAN_ANOMALY": 233.0949, "EPHEMERIS_TYPE": 0, "CLASSIFICATION_TYPE": "U", "NORAD_CAT_ID": 34752, "ELEMENT_SET_NO": 999, "REV_AT_EPOCH": 89860, "BSTAR": 0.0015253776, "MEAN_MOTION_DOT": 0.00019425, "MEAN_MOTION_DDOT": 0}, "tle": {"line1": "1 34752U 93036ZW  25347.44633003  .00019425  00000+0  15254-2 0  9995", "line2": "2 34752  74.0136 359.1669 0047701 127.4592 233.0949 14.99957131898602"}}, "geometry": {"type": "Point", "coordinates": [139.25499571094502, 65.01677496104219]}}, {"type": "Feature", "properties": {"norad_id": 34754, "name": "COSMOS 2251 DEB", "group": "cosmos-2251-debris", "lat": 73.95076950037657, "lon": -50.93649775361201, "alt_km": 756.0345256503697, "timestamp": "2025-12-14T09:36:23.433128+00:00", "meta": {"OBJECT_NAME": "COSMOS 2251 DEB", "OBJECT_ID": "1993-036ZY", "EPOCH": "2025-12-13T16:50:22.551360", "MEAN_MOTION": 14.40483324, "ECCENTRICITY": 0.00295984, "INCLINATION": 74.0299, "RA_OF_ASC_NODE": 225.8232, "ARG_OF_PERICENTER": 341.7108, "MEAN_ANOMALY": 85.0523, "EPHEMERIS_TYPE": 0, "CLASSIFICATION_TYPE": "U", "NORAD_CAT_ID": 34754, "ELEMENT_SET_NO": 999, "REV_AT_EPOCH": 88147, "BSTAR": 0.00029030501, "MEAN_MOTION_DOT": 9.02e-06, "MEAN_MOTION_DDOT": 0}, "tle": {"line1": "1 34754U 93036ZY  25347.70164990  .00000902  00000+0  29031-3 0  9999", "line2": "2 34754  74.0299 225.8232 0029598 341.7108  85.0523 14.40483324881471"}}, "geometry": {"type": "Point", "coordinates": [-50.93649775361201, 73.95076950037657]}}, {"type": "Feature", "properties": {"norad_id": 34755, "name": "COSMOS 2251 DEB", "group": "cosmos-2251-debris", "lat": 22.89562668044884, "lon": -65.64922595123822, "alt_km": 989.7696919294331, "timestamp": "2025-12-14T09:36:23.433138+00:00", "meta": {"OBJECT_NAME": "COSMOS 2251 DEB", "OBJECT_ID": "1993-036ZZ", "EPOCH": "2025-12-13T03:21:12.314304", "MEAN_MOTION": 13.50561141, "ECCENTRICITY": 0.04082739, "INCLINATION": 73.9258, "RA_OF_ASC_NODE": 289.3819, "ARG_OF_PERICENTER": 309.135, "MEAN_ANOMALY": 63.7698, "EPHEMERIS_TYPE": 0, "CLASSIFICATION_TYPE": "U", "NORAD_CAT_ID": 34755, "ELEMENT_SET_NO": 999, "REV_AT_EPOCH": 82529, "BSTAR": 0.0020583927, "MEAN_MOTION_DOT": 2.198e-05, "MEAN_MOTION_DDOT": 0}, "tle": {"line1": "1 34755U 93036ZZ  25347.13972586  .00002198  00000+0  20584-2 0  9997", "line2": "2 34755  73.9258 289.3819 0408273 309.1350  63.7698 13.50561141825297"}}, "geometry": {"type": "Point", "coordinates": [-65.64922595123822, 22.89562668044884]}}, {"type": "Feature", "properties": {"norad_id": 34756, "name": "COSMOS 2251 DEB", "group": "cosmos-2251-debris", "lat": 26.857290713900316, "lon": 109.99198295326009, "alt_km": 842.4465824736717, "timestamp": "2025-12-14T09:36:23.433148+00:00", "meta": {"OBJECT_NAME": "COSMOS 2251 DEB", "OBJECT_ID": "1993-036AAA", "EPOCH": "2025-12-13T14:09:41.564160", "MEAN_MOTION": 13.6724515, "ECCENTRICITY": 0.0345102, "INCLINATION": 74.0027, "RA_OF_ASC_NODE": 102.9711, "ARG_OF_PERICENTER": 338.5993, "MEAN_ANOMALY": 20.0978, "EPHEMERIS_TYPE": 0, "CLASSIFICATION_TYPE": "U", "NORAD_CAT_ID": 34756, "ELEMENT_SET_NO": 999, "REV_AT_EPOCH": 83433, "BSTAR": 0.0012429272, "MEAN_MOTION_DOT": 1.552e-05, "MEAN_MOTION_DDOT": 0}, "tle": {"line1": "1 34756U 93036AAA 25347.59006440  .00001552  00000+0  12429-2 0  9997", "line2": "2 34756  74.0027 102.9711 0345102 338.5993  20.0978 13.67245150834334"}}, "geometry": {"type": "Point", "coordinates": [109.99198295326009, 26.857290713900316]}}, {"type": "Feature", "properties": {"norad_id": 34758, "name": "COSMOS 2251 DEB", "group": "cosmos-2251-debris", "lat": 73.2213000138653, "lon": 7.707623422831524, "alt_km": 775.8714708349689, "timestamp": "2025-12-14T09:36:23.433158+00:00", "meta": {"OBJECT_NAME": "COSMOS 2251 DEB", "OBJECT_ID": "1993-036AAC", "EPOCH": "2025-12-13T13:46:20.391168", "MEAN_MOTION": 13.5807199, "ECCENTRICITY": 0.03813302, "INCLINATION": 74.1077, "RA_OF_ASC_NODE": 298.1546, "ARG_OF_PERICENTER": 61.6726, "MEAN_ANOMALY": 302.2296, "EPHEMERIS_TYPE": 0, "CLASSIFICATION_TYPE": "U", "NORAD_CAT_ID": 34758, "ELEMENT_SET_NO": 999, "REV_AT_EPOCH": 82921, "BSTAR": 0.0018611254, "MEAN_MOTION_DOT": 2.146e-05, "MEAN_MOTION_DDOT": 0}, "tle": {"line1": "1 34758U 93036AAC 25347.57384712  .00002146  00000+0  18611-2 0  9997", "line2": "2 34758  74.1077 298.1546 0381330  61.6726 302.2296 13.58071990829215"}}, "geometry": {"type": "Point", "coordinates": [7.707623422831524, 73.2213000138653]}}, {"type": "Feature", "properties": {"norad_id": 34760, "name": "COSMOS 2251 DEB", "group": "cosmos-2251-debris", "lat": -19.122857048937135, "lon": -66.28728733224074, "alt_km": 763.0262833233573, "timestamp": "2025-12-14T09:36:23.433168+00:00", "meta": {"OBJECT_NAME": "COSMOS 2251 DEB", "OBJECT_ID": "1993-036AAE", "EPOCH": "2025-12-11T20:57:04.029120", "MEAN_MOTION": 14.19565488, "ECCENTRICITY": 0.0096741, "INCLINATION": 74.0637, "RA_OF_ASC_NODE": 303.9064, "ARG_OF_PERICENTER": 356.2172, "MEAN_ANOMALY": 33.6085, "EPHEMERIS_TYPE": 0, "CLASSIFICATION_TYPE": "U", "NORAD_CAT_ID": 34760, "ELEMENT_SET_NO": 999, "REV_AT_EPOCH": 86676, "BSTAR": 0.0010971, "MEAN_MOTION_DOT": 2.4e-05, "MEAN_MOTION_DDOT": 0}, "tle": {"line1": "1 34760U 93036AAE 25345.87296330  .00002400  00000+0  10971-2 0  9993", "line2": "2 34760  74.0637 303.9064 0096741 356.2172  33.6085 14.19565488866766"}}, "geometry": {"type": "Point", "coordinates": [-66.28728733224074, -19.122857048937135]}}, {"type": "Feature", "properties": {"norad_id": 34761, "name": "COSMOS 2251 DEB", "group": "cosmos-2251-debris", "lat": 10.078421340973156, "lon": 2.6504282307455367, "alt_km": 742.141228103349, "timestamp": "2025-12-14T09:36:23.433178+00:00", "meta": {"OBJECT_NAME": "COSMOS 2251 DEB", "OBJECT_ID": "1993-036AAF", "EPOCH": "2025-12-12T19:09:27.421920", "MEAN_MOTION": 14.38049473, "ECCENTRICITY": 0.00364098, "INCLINATION": 74.0297, "RA_OF_ASC_NODE": 2.6837, "ARG_OF_PERICENTER": 36.7521, "MEAN_ANOMALY": 323.6119, "EPHEMERIS_TYPE": 0, "CLASSIFICATION_TYPE": "U", "NORAD_CAT_ID": 34761, "ELEMENT_SET_NO": 999, "REV_AT_EPOCH": 87650, "BSTAR": 0.0009152545, "MEAN_MOTION_DOT": 2.767e-05, "MEAN_MOTION_DDOT": 0}, "tle": {"line1": "1 34761U 93036AAF 25346.79823405  .00002767  00000+0  91525-3 0  9996", "line2": "2 34761  74.0297   2.6837 0036409  36.7521 323.6119 14.38049473876508"}}, "geometry": {"type": "Point", "coordinates": [2.6504282307455367, 10.078421340973156]}}]}